{
  "type": "FeatureCollection",
  "features": [
    {
      "type": "Feature",
      "properties": {
        "norad_id": 15362,
        "name": "NOVA 3",
        "group": "nnss",
        "lat": -28.981090757186887,
        "lon": -99.36150703039145,
        "alt_km": 1175.4053664927724,
        "timestamp": "2025-12-27T07:26:25.490313+00:00",
        "meta_object_name": "NOVA 3",
        "meta_object_id": "1984-110A",
        "meta_epoch": "2025-12-26T12:17:22.808256",
        "meta_mean_motion": 13.23046399,
        "meta_eccentricity": 0.0029843,
        "meta_inclination": 90.1217,
        "meta_ra_of_asc_node": 80.6966,
        "meta_arg_of_pericenter": 292.1662,
        "meta_mean_anomaly": 78.6503,
        "meta_ephemeris_type": 0,
        "meta_classification_type": "U",
        "meta_norad_cat_id": 15362,
        "meta_element_set_no": 999,
        "meta_rev_at_epoch": 98881,
        "meta_bstar": 0.00016272,
        "meta_mean_motion_dot": 7.7e-07,
        "meta_mean_motion_ddot": 0,
        "tle_line1": "1 15362U 84110A   25360.51206954  .00000077  00000+0  16272-3 0  9993",
        "tle_line2": "2 15362  90.1217  80.6966 0029843 292.1662  78.6503 13.23046399988811"
      },
      "geometry": {
        "type": "Point",
        "coordinates": [
          -99.36150703039145,
          -28.981090757186887
        ]
      }
    },
    {
      "type": "Feature",
      "properties": {
        "norad_id": 15935,
        "name": "OSCAR 30",
        "group": "nnss",
        "lat": -71.81259147908419,
        "lon": -80.41823185251748,
        "alt_km": 1241.9624404513797,
        "timestamp": "2025-12-27T07:26:25.490324+00:00",
        "meta_object_name": "OSCAR 30",
        "meta_object_id": "1985-066A",
        "meta_epoch": "2025-12-26T18:09:23.815296",
        "meta_mean_motion": 13.36080704,
        "meta_eccentricity": 0.01687436,
        "meta_inclination": 90.1653,
        "meta_ra_of_asc_node": 100.0762,
        "meta_arg_of_pericenter": 44.7156,
        "meta_mean_anomaly": 67.3239,
        "meta_ephemeris_type": 0,
        "meta_classification_type": "U",
        "meta_norad_cat_id": 15935,
        "meta_element_set_no": 999,
        "meta_rev_at_epoch": 96640,
        "meta_bstar": 0.00016877766,
        "meta_mean_motion_dot": 1.03e-06,
        "meta_mean_motion_ddot": 0,
        "tle_line1": "1 15935U 85066A   25360.75652564  .00000103  00000+0  16878-3 0  9990",
        "tle_line2": "2 15935  90.1653 100.0762 0168743  44.7156  67.3239 13.36080704966408"
      },
      "geometry": {
        "type": "Point",
        "coordinates": [
          -80.41823185251748,
          -71.81259147908419
        ]
      }
    },
    {
      "type": "Feature",
      "properties": {
        "norad_id": 15936,
        "name": "OSCAR 24",
        "group": "nnss",
        "lat": -41.45941288956306,
        "lon": 92.72157367002634,
        "alt_km": 1131.0648371278594,
        "timestamp": "2025-12-27T07:26:25.490335+00:00",
        "meta_object_name": "OSCAR 24",
        "meta_object_id": "1985-066B",
        "meta_epoch": "2025-12-26T19:39:06.784128",
        "meta_mean_motion": 13.35937892,
        "meta_eccentricity": 0.01699271,
        "meta_inclination": 90.1792,
        "meta_ra_of_asc_node": 92.5545,
        "meta_arg_of_pericenter": 50.9961,
        "meta_mean_anomaly": 68.6575,
        "meta_ephemeris_type": 0,
        "meta_classification_type": "U",
        "meta_norad_cat_id": 15936,
        "meta_element_set_no": 999,
        "meta_rev_at_epoch": 96831,
        "meta_bstar": 0.00014480105,
        "meta_mean_motion_dot": 9e-07,
        "meta_mean_motion_ddot": 0,
        "tle_line1": "1 15936U 85066B   25360.81882852  .00000090  00000+0  14480-3 0  9995",
        "tle_line2": "2 15936  90.1792  92.5545 0169927  50.9961  68.6575 13.35937892968312"
      },
      "geometry": {
        "type": "Point",
        "coordinates": [
          92.72157367002634,
          -41.45941288956306
        ]
      }
    },
    {
      "type": "Feature",
      "properties": {
        "norad_id": 17070,
        "name": "POLAR BEAR",
        "group": "nnss",
        "lat": 55.746293439961114,
        "lon": -176.24695294327282,
        "alt_km": 947.2742216643574,
        "timestamp": "2025-12-27T07:26:25.490345+00:00",
        "meta_object_name": "POLAR BEAR",
        "meta_object_id": "1986-088A",
        "meta_epoch": "2025-12-26T22:59:32.643744",
        "meta_mean_motion": 13.75253789,
        "meta_eccentricity": 0.00412519,
        "meta_inclination": 89.6169,
        "meta_ra_of_asc_node": 183.2043,
        "meta_arg_of_pericenter": 78.4022,
        "meta_mean_anomaly": 35.9171,
        "meta_ephemeris_type": 0,
        "meta_classification_type": "U",
        "meta_norad_cat_id": 17070,
        "meta_element_set_no": 999,
        "meta_rev_at_epoch": 96174,
        "meta_bstar": 0.00011929239,
        "meta_mean_motion_dot": 1.27e-06,
        "meta_mean_motion_ddot": 0,
        "tle_line1": "1 17070U 86088A   25360.95801671  .00000127  00000+0  11929-3 0  9992",
        "tle_line2": "2 17070  89.6169 183.2043 0041251  78.4022  35.9171 13.75253789961746"
      },
      "geometry": {
        "type": "Point",
        "coordinates": [
          -176.24695294327282,
          55.746293439961114
        ]
      }
    },
    {
      "type": "Feature",
      "properties": {
        "norad_id": 18361,
        "name": "OSCAR 27",
        "group": "nnss",
        "lat": 16.25538216548807,
        "lon": -100.07408119026154,
        "alt_km": 1017.7613885104083,
        "timestamp": "2025-12-27T07:26:25.490356+00:00",
        "meta_object_name": "OSCAR 27",
        "meta_object_id": "1987-080A",
        "meta_epoch": "2025-12-26T10:59:09.175776",
        "meta_mean_motion": 13.44909552,
        "meta_eccentricity": 0.0104074,
        "meta_inclination": 90.3736,
        "meta_ra_of_asc_node": 79.7851,
        "meta_arg_of_pericenter": 184.3556,
        "meta_mean_anomaly": 175.6696,
        "meta_ephemeris_type": 0,
        "meta_classification_type": "U",
        "meta_norad_cat_id": 18361,
        "meta_element_set_no": 999,
        "meta_rev_at_epoch": 87741,
        "meta_bstar": 0.00017189,
        "meta_mean_motion_dot": 1.13e-06,
        "meta_mean_motion_ddot": 0,
        "tle_line1": "1 18361U 87080A   25360.45774509  .00000113  00000+0  17189-3 0  9992",
        "tle_line2": "2 18361  90.3736  79.7851 0104074 184.3556 175.6696 13.44909552877413"
      },
      "geometry": {
        "type": "Point",
        "coordinates": [
          -100.07408119026154,
          16.25538216548807
        ]
      }
    },
    {
      "type": "Feature",
      "properties": {
        "norad_id": 18362,
        "name": "OSCAR 29",
        "group": "nnss",
        "lat": 28.67975414427137,
        "lon": -99.51771688912868,
        "alt_km": 1044.6331725474774,
        "timestamp": "2025-12-27T07:26:25.490366+00:00",
        "meta_object_name": "OSCAR 29",
        "meta_object_id": "1987-080B",
        "meta_epoch": "2025-12-26T11:05:26.932128",
        "meta_mean_motion": 13.44450985,
        "meta_eccentricity": 0.0104875,
        "meta_inclination": 90.3748,
        "meta_ra_of_asc_node": 80.2454,
        "meta_arg_of_pericenter": 207.474,
        "meta_mean_anomaly": 163.2863,
        "meta_ephemeris_type": 0,
        "meta_classification_type": "U",
        "meta_norad_cat_id": 18362,
        "meta_element_set_no": 999,
        "meta_rev_at_epoch": 87694,
        "meta_bstar": 0.00015143,
        "meta_mean_motion_dot": 9.9e-07,
        "meta_mean_motion_ddot": 0,
        "tle_line1": "1 18362U 87080B   25360.46211727  .00000099  00000+0  15143-3 0  9993",
        "tle_line2": "2 18362  90.3748  80.2454 0104875 207.4740 163.2863 13.44450985876941"
      },
      "geometry": {
        "type": "Point",
        "coordinates": [
          -99.51771688912868,
          28.67975414427137
        ]
      }
    },
    {
      "type": "Feature",
      "properties": {
        "norad_id": 19070,
        "name": "OSCAR 23",
        "group": "nnss",
        "lat": 45.32504048964873,
        "lon": -162.83230762565924,
        "alt_km": 1008.1292499820083,
        "timestamp": "2025-12-27T07:26:25.490376+00:00",
        "meta_object_name": "OSCAR 23",
        "meta_object_id": "1988-033A",
        "meta_epoch": "2025-12-26T23:36:30.033216",
        "meta_mean_motion": 13.27789415,
        "meta_eccentricity": 0.0190608,
        "meta_inclination": 90.3203,
        "meta_ra_of_asc_node": 16.8334,
        "meta_arg_of_pericenter": 140.4271,
        "meta_mean_anomaly": 235.3632,
        "meta_ephemeris_type": 0,
        "meta_classification_type": "U",
        "meta_norad_cat_id": 19070,
        "meta_element_set_no": 999,
        "meta_rev_at_epoch": 82442,
        "meta_bstar": 0.00016283465,
        "meta_mean_motion_dot": 9.1e-07,
        "meta_mean_motion_ddot": 0,
        "tle_line1": "1 19070U 88033A   25360.98368094  .00000091  00000+0  16283-3 0  9994",
        "tle_line2": "2 19070  90.3203  16.8334 0190608 140.4271 235.3632 13.27789415824425"
      },
      "geometry": {
        "type": "Point",
        "coordinates": [
          -162.83230762565924,
          45.32504048964873
        ]
      }
    }
  ]
}